#cP2025  1 13  0  0  0.00000000      96 ORBIT IGS20 HLM  IGS
## 2349  86400.00000000   900.00000000 60688 0.0000000000000
+   32   G01G02G03G04G05G06G07G08G09G10G11G12G13G14G15G16G17
+        G18G19G20G21G22G23G24G25G26G27G28G29G30G31G32  0  0
+          0  0  0  0  0  0  0  0  0  0  0  0  0  0  0  0  0
+          0  0  0  0  0  0  0  0  0  0  0  0  0  0  0  0  0
+          0  0  0  0  0  0  0  0  0  0  0  0  0  0  0  0  0
++         4  2  2  2  2  2  1  2  2  2  2  2  2  2  2  2  2
++         2  2  2  2  2  2  2  2  2  2  1  2  2  2  2  0  0
++         0  0  0  0  0  0  0  0  0  0  0  0  0  0  0  0  0
++         0  0  0  0  0  0  0  0  0  0  0  0  0  0  0  0  0
++         0  0  0  0  0  0  0  0  0  0  0  0  0  0  0  0  0
%c G  cc GPS ccc cccc cccc cccc cccc ccccc ccccc ccccc ccccc
%c cc cc ccc ccc cccc cccc cccc cccc ccccc ccccc ccccc ccccc
%f  1.2500000  1.025000000  0.00000000000  0.000000000000000
%f  0.0000000  0.000000000  0.00000000000  0.000000000000000
%i    0    0    0    0      0      0      0      0         0
%i    0    0    0    0      0      0      0      0         0
/* FINAL ORBIT COMBINATION FROM WEIGHTED AVERAGE OF:        
/* cod emr esa gfz grg jgx jpl mit ngs sio                  
/* REFERENCED TO IGS TIME (IGST) AND TO WEIGHTED MEAN POLE: 
/* PCV:IGS20      OL/AL:FES2014b NONE     Y  ORB:CMB CLK:CMB
*  2025  1 13 12 45  0.00000000
PG01 -20403.792719 -13443.352490  10428.431854 999999.999999 14  9  6           
PG02 -22458.221077 -12564.888636   7820.316719   -268.859886  5  6  4  60       
PG03 -13787.246077  -4666.372188  22052.711771    645.205254  4  5  4  87       
PG04 -24829.892130  -1568.003273   9532.851221    511.311358  8  3  8  70       
PG05   7432.988845  18964.508554 -17184.835914   -198.897097  6  4  2  89       
PG06   -666.490718  18115.874563  19439.824266   -115.489417  4  3  2           
PG07 -18254.164421    479.773178 -18902.099952    -13.548044  4  2  1  86       
PG08 -17973.325753  -8287.063989 -18056.993934    460.006527  4  5  6  85       
PG09 -25809.416471   6351.745505    921.750005    527.046101  6  2  5  64       
PG10  10191.444808 -23859.570060  -4538.364005   -275.061571  3  1  1  39       
PG11   9842.250393  22354.968822  10543.951695   -751.792211  6  2  2  58       
PG12  12797.963246   8501.788855  21380.248530   -564.209706  6  2  4  94       
PG13   9067.197701  13619.191032 -21205.476885    693.343575  6  2  4  76       
PG14 -12916.427285  21593.284123  -8068.859174    579.191468  4  5  5  41       
PG15  18961.185230   6373.899100 -18064.614869    251.153319  7  2  6  61       
PG16  -1765.927938 -22502.642507 -13985.291801    -78.899502  7  3  3  14       
PG17 -18709.795051  13249.024770  13993.101507    476.159057  6  3  5  71       
PG18  16459.210304  -2865.646591 -20669.630210   -658.006839  9  3  6  78       
PG19  -8785.858965  15035.411737  19783.541559    585.702008  4  3  2  39       
PG20   1603.134990  25864.439812  -6041.144858    367.110063  3  3  3  70       
PG21 -21121.313146 -17075.793828   1284.598057    100.925616  6  5  4  74       
PG22  -9535.004185  24971.634562    338.818893    -92.063834  4  3  4  54       
PG23  15206.359109 -13585.940798 -16845.133967    403.044991  8  3  3  38       
PG24  22005.132730  14438.161281   4438.469707   -464.371999  5  2  4  72       
PG25  16254.209376  -6128.500333  19657.812584    496.809424  5  3  6  77       
PG26   2997.289158 -26038.692820  -2880.408065    -46.593293  4  5  2  80       
PG27  -6412.493056 -14186.294424 -21857.979736    -33.102259  6  5  4  74       
PG28   2155.853917 -17399.088899  19938.903193   -534.314564  4  4  4  71       
PG29  26327.178003  -3937.537211    635.380810   -547.493078  8  4  2  69       
PG30  -9845.170429  12321.234012 -21203.209790   -240.067090  6  1  4  72       
PG31  -5881.758726 -21319.744168  14188.900714   -217.969330  4  1  5  45       
PG32  13786.646733 -15487.785861  16712.901967   -542.354665  4  4  1  83       
*  2025  1 13 13  0  0.00000000
PG01 -20914.050342 -14384.251035   7840.037047 999999.999999 14  9  8           
PG02 -22857.853806 -13144.090950   5101.945845   -268.851411  5  5  4  79       
PG03 -13129.439792  -7117.706084  21809.682848    645.211852  4  5  3  84       
PG04 -23685.078202  -2046.020742  12020.413498    511.316659  8  4  8  79       
PG05   6922.280730  20722.716198 -15231.873495   -198.898332  5  4  2  74       
PG06  -2321.841862  16549.041147  20685.407072   -115.513539  4  3  2  43       
PG07 -19706.851956  -1136.245773 -17439.246088    -13.547975  4  2  2  73       
PG08 -16000.418800  -9046.411721 -19462.047893    460.013503  3  5  6  82       
PG09 -25617.585529   6032.324957   3757.322186    527.059592  6  1  5  60       
PG10  10205.592046 -23119.180850  -7357.288043   -275.076035  4  1  1  35       
PG11   8785.647379  21513.179973  12956.031414   -751.791362  5  2  2  54       
PG12  11969.793934  10834.301913  20809.194270   -564.211819  7  2  4  86       
PG13   6685.778066  13965.153301 -21841.214057    693.344779  6  2  4  74       
PG14 -12905.543689  20470.275300 -10620.214131    579.197973  4  5  5  74       
PG15  17155.423933   7362.171200 -19467.701731    251.157251  6  2  5  70       
PG16  -1076.293229 -23777.700517 -11656.320137    -78.890923  7  3  3  64       
PG17 -20116.751248  13377.302785  11675.587738    476.143079  7  2  5  47       
PG18  18015.754939  -1174.843628 -19526.329103   -658.005620  9  3  6  80       
PG19 -11002.167369  15273.273638  18417.730828    585.705894  3  3  2  51       
PG20   1313.478728  26386.189099  -3267.394397    367.109457  3  3  3  85       
PG21 -20973.511908 -17175.073061  -1505.704361    100.926694  5  5  4  73       
PG22  -9703.481603  24738.375656  -2492.730454    -92.065424  4  4  4  76       
PG23  14876.176617 -11570.845926 -18572.529810    403.051751  8  4  3  74       
PG24  22129.347007  14922.040101   1688.624820   -464.368413  5  2  5  69       
PG25  15817.687545  -3780.246864  20591.035117    496.808893  5  3  6  94       
PG26   3390.677592 -26127.790937    -72.896273    -46.607083  4  5  2  79       
PG27  -4067.992120 -14858.571043 -21935.794174    -33.101772  7  5  4  85       
PG28   3936.808433 -15879.139960  20911.115671   -534.323260  4  3  4  82       
PG29  26136.037686  -3671.057706   3486.151850   -547.490202  7  4  3  81       
PG30 -11627.579504  10610.127701 -21249.989548   -240.059542  6  1  4  79       
PG31  -4468.674009 -20191.992000  16209.740497   -217.968583  4  1  5  64       
PG32  15532.734614 -15811.627784  14714.240753   -542.348475  4  5  2  79       
*  2025  1 13 13 15  0.00000000
PG01 -21261.898727 -15082.929851   5116.802062 999999.999999 14  9  8           
PG02 -23037.751922 -13522.617940   2298.669119   -268.843020  5  5  4  84       
PG03 -12619.760024  -9552.007692  21185.961903    645.218412  4  5  3  59       
PG04 -22309.666993  -2663.530059  14302.936563    511.321936  8  4  8  75       
PG05   6540.626111  22274.596854 -13018.954819   -198.899311  4  4  2  81       
PG06  -4152.230080  14998.410816  21576.343006   -115.537656  3  3  1  65       
PG07 -21095.381644  -2550.401886 -15668.675540    -13.547768  4  1  2  71       
PG08 -13936.911516  -9957.717190 -20539.979219    460.020522  3  5  5  87       
PG09 -25145.703059   5591.580791   6528.399343    527.073249  5  1  5  72       
PG10  10200.589174 -22069.515270 -10046.093241   -275.090438  5  1  2  75       
PG11   7497.548643  20549.243890  15146.278544   -751.790568  5  3  3  50       
PG12  11285.262746  13121.446436  19870.955700   -564.213947  7  1  4  86       
PG13   4275.352168  14451.204085 -22109.980177    693.346100  5  3  4  64       
PG14 -12889.902204  19075.489236 -12986.015493    579.204477  4  5  5  74       
PG15  15281.127985   8502.861887 -20550.880031    251.161542  6  3  5  69       
PG16   -525.235483 -24824.195018  -9125.480918    -78.882566  7  2  4  82       
PG17 -21257.050778  13506.966848   9163.186555    476.127309  7  2  5  56       
PG18  19550.493000    327.912610 -18048.288165   -658.004446  9  4  6  73       
PG19 -13035.145345  15586.187761  16726.825328    585.710144  4  3  3  73       
PG20   1055.706644  26605.783882   -437.774137    367.109434  2  2  3  75       
PG21 -20579.572800 -17106.694630  -4271.700605    100.928044  5  5  5  56       
PG22  -9799.026391  24208.773691  -5281.955753    -92.067325  4  4  4  73       
PG23  14628.133877  -9365.890697 -19976.699933    403.058446  9  4  4  77       
PG24  22026.354970  15216.843565  -1089.738878   -464.364834  5  3  5  70       
PG25  15481.975804  -1329.950305  21156.813023    496.808360  5  2  6  84       
PG26   3746.762529 -25917.296970   2735.880776    -46.620864  4  5  2  76       
PG27  -1769.097804 -15650.895321 -21646.387285    -33.101280  7  5  3  84       
PG28   5864.085018 -14397.351307  21523.111399   -534.331926  4  3  4  83       
PG29  25651.098539  -3313.117256   6277.326368   -547.487388  7  5  3  85       
PG30 -13475.497968   8998.065117 -20926.338233   -240.051929  6  1  4  89       
PG31  -2842.285837 -18991.588915  17942.516366   -217.967860  3  1  5  63       
PG32  17036.050528 -16145.964410  12463.623013   -542.342252  5  5  2  71       
EOF
